     2.11           N: GPS NAV DATA                         RINEX VERSION / TYPE
teqc  2019Feb25                         20221121 12:28:03UTCPGM / RUN BY / DATE
OSX ker:10.11.6|Core i5|gcc 4.3 -m64|OSX ker:10.10+|=+      COMMENT
    1.0245D-08  7.4506D-09 -5.9605D-08 -5.9605D-08          ION ALPHA
    8.8064D+04  0.0000D+00 -1.9661D+05 -6.5536D+04          ION BETA
    3.725290298462D-09 9.769962616701D-15   319488     1552 DELTA-UTC: A0,A1,T,W
                                                            END OF HEADER
 2 09 10  6  0  0  0.0 1.783245243132D-04 3.410605131648D-12 0.000000000000D+00
    2.200000000000D+01 7.778125000000D+01 4.785199322759D-09-1.409756957282D+00
    4.023313522339D-06 9.118838468567D-03 1.209229230881D-05 5.153726116180D+03
    1.728000000000D+05-2.235174179077D-08-2.791441992706D+00-1.303851604462D-07
    9.412076329615D-01 1.366562500000D+02 2.900246337598D+00-8.117480982809D-09
    1.157191058795D-10 1.000000000000D+00 1.552000000000D+03 0.000000000000D+00
    2.000000000000D+00 0.000000000000D+00-1.722946763039D-08 2.200000000000D+01
    1.697580000000D+05 4.000000000000D+00
 4 09 10  6  0  0  0.0-2.975389361382D-04-1.762145984685D-11 0.000000000000D+00
    3.800000000000D+01 8.043750000000D+01 4.779127641278D-09 1.416937444903D+00
    4.444271326065D-06 8.892066194676D-03 1.273863017559D-05 5.153562967300D+03
    1.728000000000D+05-8.940696716309D-08-2.773245677820D+00 1.527369022369D-07
    9.403855944232D-01 1.233125000000D+02 5.336569381650D-01-8.189626845116D-09
   -8.107480566251D-11 1.000000000000D+00 1.552000000000D+03 0.000000000000D+00
    2.000000000000D+00 0.000000000000D+00-6.053596735001D-09 3.800000000000D+01
    1.697580000000D+05 4.000000000000D+00
12 09 10  6  0  0  0.0-2.086842432618D-04 5.570655048359D-12 0.000000000000D+00
    2.200000000000D+01 2.862500000000D+01 4.610192033003D-09-3.060480157123D+00
    1.506879925728D-06 3.072946448810D-03 5.252659320831D-06 5.153552551270D+03
    1.728000000000D+05-4.284083843231D-08 1.418227389012D+00 3.911554813385D-08
    9.678314955980D-01 2.787500000000D+02-5.810192474524D-01-8.112480774530D-09
    4.425184326689D-10 1.000000000000D+00 1.552000000000D+03 0.000000000000D+00
    2.000000000000D+00 0.000000000000D+00-1.164153218269D-08 2.200000000000D+01
    1.697580000000D+05 4.000000000000D+00
13 09 10  6  0  0  0.0 3.053913824260D-04 3.410605131648D-13 0.000000000000D+00
    1.400000000000D+01-1.210000000000D+02 3.864446684002D-09-7.977130999526D-01
   -6.310641765594D-06 3.961772308685D-03 6.215646862984D-06 5.153644876480D+03
    1.728000000000D+05-2.793967723846D-08-6.205119542421D-01 5.587935447693D-08
    9.943922962248D-01 2.767187500000D+02 1.662124185641D+00-7.974975046864D-09
   -5.003779856087D-10 1.000000000000D+00 1.552000000000D+03 0.000000000000D+00
    2.000000000000D+00 0.000000000000D+00-1.117587089539D-08 1.400000000000D+01
    1.697580000000D+05 4.000000000000D+00
17 09 10  6  0  0  0.0 9.066704660654D-05 3.183231456205D-12 0.000000000000D+00
    6.800000000000D+01-4.596875000000D+01 4.827343935394D-09-3.328097727143D-01
   -2.278015017509D-06 4.697310156189D-03 8.137896656990D-06 5.153736804962D+03
    1.728000000000D+05 5.587935447693D-08 2.478438025646D+00 3.166496753693D-08
    9.599883148638D-01 2.231250000000D+02-2.647378707870D+00-8.165340119191D-09
   -4.828772566331D-10 1.000000000000D+00 1.552000000000D+03 0.000000000000D+00
    2.800000000000D+00 0.000000000000D+00-1.024454832077D-08 6.800000000000D+01
    1.697580000000D+05 4.000000000000D+00
20 09 10  6  0  0  0.0 7.065897807479D-05-9.094947017729D-13 0.000000000000D+00
    5.200000000000D+01 8.953125000000D+01 5.413796934944D-09 1.181497015510D+00
    4.554167389870D-06 3.862188663334D-03 1.950189471245D-06 5.153762033463D+03
    1.728000000000D+05-1.154839992523D-07-1.756753372218D+00-2.048909664154D-08
    9.399283974134D-01 3.299687500000D+02 1.315298894084D+00-8.838582448151D-09
    2.375098932404D-10 1.000000000000D+00 1.552000000000D+03 0.000000000000D+00
    2.000000000000D+00 0.000000000000D+00-7.450580596924D-09 5.200000000000D+01
    1.697580000000D+05 4.000000000000D+00
23 09 10  6  0  0  0.0 3.878436982632D-04-4.547473508865D-13 0.000000000000D+00
    9.200000000000D+01-1.214062500000D+02 4.366610458281D-09-1.502963669612D+00
   -6.373971700668D-06 6.392369396053D-03 5.643814802170D-06 5.153769285202D+03
    1.728000000000D+05-3.166496753693D-08-6.756449098596D-01-3.911554813385D-08
    9.696935518573D-01 2.744687500000D+02 2.985006488633D+00-8.204270312218D-09
   -4.203746531488D-10 1.000000000000D+00 1.552000000000D+03 0.000000000000D+00
    2.000000000000D+00 0.000000000000D+00-2.002343535423D-08 9.200000000000D+01
    1.697580000000D+05 4.000000000000D+00
30 09 10  6  0  0  0.0 1.825219951570D-04 3.069544618484D-12 0.000000000000D+00
    8.400000000000D+01 3.175000000000D+01 5.031281001620D-09 7.070910010641D-01
    1.514330506325D-06 1.193525234703D-02 5.716457962990D-06 5.153657707214D+03
    1.728000000000D+05-1.583248376846D-07 1.368333085983D+00-3.539025783539D-08
    9.529900878167D-01 2.660000000000D+02 1.459553424739D+00-8.559642257743D-09
    3.782300405137D-10 1.000000000000D+00 1.552000000000D+03 0.000000000000D+00
    2.800000000000D+00 0.000000000000D+00-7.916241884232D-09 8.400000000000D+01
    1.697580000000D+05 4.000000000000D+00
29 09 10  6  0  0  0.0 6.351526826620D-05 3.183231456205D-12 0.000000000000D+00
    2.400000000000D+01-4.625000000000D+01 4.721625246072D-09 2.276033504903D+00
   -2.495944499969D-06 3.020182135515D-03 8.286908268929D-06 5.153595449448D+03
    1.728000000000D+05 3.352761268616D-08 2.486644574751D+00 5.587935447693D-09
    9.602619010254D-01 2.235000000000D+02-1.273461375384D+00-8.022834183247D-09
   -4.703767359362D-10 1.000000000000D+00 1.552000000000D+03 0.000000000000D+00
    2.000000000000D+00 0.000000000000D+00-8.847564458847D-09 2.400000000000D+01
    1.723080000000D+05 4.000000000000D+00
10 09 10  6  0  0  0.0-2.516526728868D-05-9.094947017729D-13 0.000000000000D+00
    2.100000000000D+01 6.896875000000D+01 5.084497504015D-09-3.334969404462D-01
    3.630295395851D-06 8.577680564485D-03 2.253800630569D-06 5.153377275467D+03
    1.728000000000D+05-2.607703208923D-08-1.706270967343D+00 1.247972249985D-07
    9.561568373245D-01 3.308437500000D+02 6.169515583488D-01-8.705719771030D-09
    1.078616357272D-10 1.000000000000D+00 1.552000000000D+03 0.000000000000D+00
    2.000000000000D+00 0.000000000000D+00-2.793967723846D-09 2.100000000000D+01
    1.726380000000D+05 4.000000000000D+00
